TIANTUO 5               
1 46234U 20058C   24139.85040500  .00038655  00000+0  10110-2 0  9996
2 46234  97.3020 197.9732 0013630 121.8049 238.4526 15.38550904208277
TYVAK-0172              
1 46267U 20059C   24139.80078915  .00030655  00000+0  22215-2 0  9990
2 46267  97.8269 342.0539 0003819  77.6780 282.4872 15.03885707202337
ION-MK01                
1 46274U 20061C   24139.12866266  .00022466  00000+0  78722-3 0  9996
2 46274  97.3014 203.5500 0004993 173.9430 186.1872 15.29468919205381
UPMSAT-2                
1 46276U 20061E   24139.14730461  .00027434  00000+0  86401-3 0  9990
2 46276  97.2993 205.7636 0001333 159.7599 200.3696 15.32885824205571
NEMO-HD                 
1 46277U 20061F   24139.82079379  .00014001  00000+0  55097-3 0  9993
2 46277  97.2990 203.2157 0001097 159.5631 200.5652 15.25743689205468
SIMBA                   
1 46279U 20061H   24139.45911343  .00185417  00000+0  27181-2 0  9992
2 46279  97.3496 211.8244 0003152 251.8058 108.2853 15.54893871205319
TRISAT                  
1 46280U 20061J   24139.46465749  .00102424  00000+0  19547-2 0  9993
2 46280  97.3357 209.5117 0002025 259.5707 100.5315 15.47766676205226
DIDO 3                  
1 46284U 20061N   24139.13510864  .00047183  00000+0  15090-2 0  9999
2 46284  97.3503 205.1545 0001130 349.0867  11.0350 15.32274244204838
FLOCK 4V-14             
1 46286U 20061Q   24139.46640797  .00061285  00000+0  13999-2 0  9991
2 46286  97.3564 212.8544 0001827 306.0806  54.0272 15.42645280205384
AMICALSAT               
1 46287U 20061R   24139.15020555  .00058284  00000+0  16946-2 0  9992
2 46287  97.3511 206.4386 0000547  18.4522 341.6741 15.35246853204950
3CAT-5A                 
1 46292U 20061W   24139.41978111  .00018017  00000+0  81239-3 0  9995
2 46292  97.3505 201.0090 0001752 346.1670  13.9518 15.21077144204609
3CAT-5B                 
1 46293U 20061X   24139.61058399  .00016368  00000+0  73451-3 0  9999
2 46293  97.3511 201.4916 0001638 336.2988  23.8172 15.21263690204624
OSM-1 CICERO            
1 46294U 20061Y   24139.44099401  .00041139  00000+0  14145-2 0  9998
2 46294  97.3526 205.6326 0000974 292.6734  67.4403 15.29967456204909
FLOCK 4V-10             
1 46296U 20061AA  24139.16150329  .00057090  00000+0  13319-2 0  9991
2 46296  97.3571 212.7379 0000391 251.3213 108.7991 15.42031273205305
FLOCK 4V-13             
1 46297U 20061AB  24139.47873343  .00052026  00000+0  12507-2 0  9996
2 46297  97.3556 212.8865 0000861 178.6755 181.4494 15.41150466205327
TTU100                  
1 46312U 20061AS  24139.84920555  .00173928  00000+0  23292-2 0  9991
2 46312  97.3551 215.3602 0003755 225.1432 134.9519 15.57392287205532
KEPLER-2 (TARS)         
1 46319U 20061AZ  24139.16258782  .00059729  00000+0  15722-2 0  9990
2 46319  97.3541 209.3898 0002223 188.6481 171.4726 15.38339134205148
NAPA-1                  
1 46320U 20061BA  24139.84985404  .00013058  00000+0  55978-3 0  9998
2 46320  97.3559 203.8521 0001522 190.0236 170.0971 15.22877352204831
JILIN-1 GAOFEN 3B       
1 46454U 20065A   24139.88928269  .00028506  00000+0  11315-2 0  9990
2 46454  97.3438 185.3161 0009113 326.3596  33.7062 15.25270256202967
JILIN-1 GAOFEN 3E       
1 46457U 20065D   24139.84241869  .00026865  00000+0  10738-2 0  9997
2 46457  97.3447 185.3597 0008342 351.2600   8.8491 15.25056137202957
JILIN-1 GAOFEN 3F       
1 46458U 20065E   24139.81659462  .00027988  00000+0  11178-2 0  9993
2 46458  97.3381 184.1826 0008443 337.8906  22.1967 15.25072952202958
JILIN-1 GAOFEN 3G       
1 46459U 20065F   24139.86130323  .00027983  00000+0  11136-2 0  9998
2 46459  97.3498 186.4487 0009283 343.5423  16.5512 15.25187007202969
JILIN-1 GAOFEN 3H       
1 46460U 20065G   24139.83749528  .00026432  00000+0  10622-2 0  9997
2 46460  97.3394 184.3850 0008606 341.1154  18.9763 15.24876350202958
JILIN-1 GAOFEN 3J       
1 46462U 20065J   24139.83721004  .00027392  00000+0  10889-2 0  9999
2 46462  97.3436 185.3386 0008214 338.1271  21.9616 15.25235922202960
HAIYANG-2C              
1 46469U 20066A   24139.85380260  .00000081  00000+0  14750-3 0  9992
2 46469  65.9963 305.8539 0011817 246.6006 113.3819 13.83369498184759
HJ-2A                   
1 46478U 20067A   24139.82996515  .00003260  00000+0  47470-3 0  9993
2 46478  97.9401 222.3040 0001535 141.4972 218.6348 14.76542299196205
HJ-2B                   
1 46479U 20067B   24139.79759123  .00003105  00000+0  45238-3 0  9990
2 46479  97.9442 222.8205 0001281  28.8749 331.2532 14.76545696196208
GONETS-M 17             
1 46486U 20068A   24139.87422886  .00000056  00000+0  33553-3 0  9990
2 46486  82.4952  99.8560 0021453 251.0508 108.8247 12.42869545165012
GONETS-M 18             
1 46487U 20068B   24139.84082269  .00000039  00000+0  21015-3 0  9996
2 46487  82.4906  99.2857 0018767 247.1682 112.7416 12.42888522165016
GONETS-M 19             
1 46488U 20068C   24139.57464507  .00000024  00000+0  99997-4 0  9995
2 46488  82.4930  99.7453 0012433 264.6821  95.2841 12.42883337164884
MEZNSAT                 
1 46489U 20068D   24139.88205384  .00041768  00000+0  16511-2 0  9995
2 46489  97.8077 104.4836 0013549  47.2848 312.9528 15.25278120200300
YARILO 1                
1 46490U 20068E   24139.40233085  .00044632  00000+0  16461-2 0  9991
2 46490  97.8090 105.0337 0012714  48.3210 311.9114 15.27576055200296
YARILO 2                
1 46491U 20068F   24139.88208850  .00045736  00000+0  16926-2 0  9998
2 46491  97.8078 105.2338 0013407  50.4294 309.8126 15.27448286200341
LACUNASAT-3             
1 46492U 20068G   24139.41390490  .00057269  00000+0  19887-2 0  9993
2 46492  97.8059 105.5639 0012367  48.7635 311.4668 15.29488441200317
DEKART                  
1 46493U 20068H   24139.52633993  .00017516  00000+0  95148-3 0  9990
2 46493  97.8135  99.3108 0016697  61.5693 298.7218 15.14460554199900
NORBI                   
1 46494U 20068J   24139.58284764  .00019923  00000+0  10298-2 0  9991
2 46494  97.8134 100.1582 0015783  60.2698 300.0102 15.16203512199969
SALSAT                  
1 46495U 20068K   24139.44582722  .00015391  00000+0  88013-3 0  9998
2 46495  97.8136  98.0038 0015667  60.2153 300.0633 15.12666508199817
ICEYE-X6                
1 46497U 20068M   24139.62027155  .00012068  00000+0  95288-3 0  9994
2 46497  97.9374  95.0714 0006469 107.1731 253.0201 15.00837640199233
LEMUR-2-SLICERS         
1 46500U 20068Q   24139.85725529  .00106390  00000+0  23854-2 0  9995
2 46500  97.7823 107.7056 0008265  70.4940 289.7199 15.42978210200516
LEMUR-2-SUSURRUS        
1 46502U 20068S   24139.85794759  .00095829  00000+0  21562-2 0  9996
2 46502  97.7863 107.7955 0008416  68.1652 292.0489 15.42914813200510
NETSAT-4                
1 46504U 20068U   24139.61203054  .00019832  00000+0  10759-2 0  9991
2 46504  97.8038  95.9701 0012428 101.9295 258.3330 15.14532186199695
NETSAT-3                
1 46505U 20068V   24139.38743669  .00020199  00000+0  11126-2 0  9994
2 46505  97.8011  95.2836 0011518 109.3528 250.8949 15.13996285199651
NETSAT-1                
1 46506U 20068W   24139.60440500  .00014961  00000+0  86152-3 0  9990
2 46506  97.8034  95.0457 0010081 116.7334 243.4929 15.12485230199653
NETSAT-2                
1 46507U 20068X   24139.56127599  .00020259  00000+0  11026-2 0  9990
2 46507  97.8022  95.5600 0009412 120.7755 239.4404 15.14442705199637
FLOCK 4V-20             
1 46612U 20061BJ  24139.72691552  .00033588  00000+0  79332-3 0  9997
2 46612  97.3190 214.3971 0004503 148.4964 211.6554 15.41773657200074
TIANQI-6                
1 46810U 20076D   24139.85578741  .00009646  00000+0  81959-3 0  9997
2 46810  35.0032 357.1492 0013628 352.1337   7.9155 14.97112242194395
KSM1-C                  
1 46906U 20081B   24139.56811935  .00014608  00000+0  91988-3 0  9999
2 46906  36.8953   6.8222 0004652 355.5284   4.5417 15.08547308193678
KSM1-D                  
1 46907U 20081C   24139.87344455  .00013453  00000+0  85530-3 0  9995
2 46907  36.8997   5.9371 0005811  22.1421 337.9572 15.08216290193780
KSM1-A                  
1 46912U 20081H   24139.89769375  .00014101  00000+0  89059-3 0  9996
2 46912  36.8988   4.2042 0002431 105.4306 254.6706 15.08455895193808
R2                      
1 46913U 20081J   24139.35009232  .00014338  00000+0  90275-3 0  9991
2 46913  36.9029   5.8101 0009245  45.6561 314.4939 15.08535700196504
KSM1-B                  
1 46914U 20081K   24139.81659689  .00013747  00000+0  87466-3 0  9991
2 46914  36.9032   5.7640 0007333  52.5157 307.6253 15.08177022193059
GONETS-M 20             
1 47227U 20091A   24139.83358758  .00000031  00000+0  15280-3 0  9992
2 47227  82.5064  54.4231 0021940  39.8305 320.4380 12.42873814156879
GONETS-M 21             
1 47228U 20091B   24139.80704545  .00000054  00000+0  32130-3 0  9997
2 47228  82.4988  53.6188 0016113  53.2591 306.9965 12.42885366156861
GONETS-M 22             
1 47229U 20091C   24139.86146698  .00000026  00000+0  11833-3 0  9999
2 47229  82.5045  54.1296 0022853  33.7369 326.5160 12.42880911156852
HAISI 1                 
1 47297U 20102B   24139.82779693  .00129655  00000+0  16243-2 0  9999
2 47297  97.4253 248.6416 0001642 162.5095 197.6218 15.59331266189703
UVSQ-SAT                
1 47438U 21006AB  24139.72750525  .00073525  00000+0  15557-2 0  9993
2 47438  97.3297 199.8754 0004733 314.9418  45.1446 15.44860665184186
YUSAT-1                 
1 47439U 21006AC  24139.61192716  .00194742  00000+0  22356-2 0  9994
2 47439  97.3255 203.7172 0004929 270.5636  89.5056 15.61402561184428
2021-006AE              
1 47441U 21006AE  24139.68131996  .00650766  00000+0  31345-2 0  9998
2 47441  97.2918 204.8367 0006853 267.7148  92.3336 15.80926424184555
SOMP2B                  
1 47445U 21006AJ  24139.60931426  .00064180  00000+0  14839-2 0  9998
2 47445  97.3260 198.1944 0004838 330.8761  29.2216 15.42259351184091
